{
  "version": 0.6,
  "generator": "Overpass API",
  "osm3s": {
    "timestamp_osm_base": "2014-04-02T16:31:02Z",
    "copyright": "The data included in this document is from www.openstreetmap.org. The data is made available under ODbL."
  },
  "elements": [
    {
      "type": "node",
      "id": 251001752,
      "lat": 48.8643869,
      "lon": 2.3503038,
      "tags": {
        "amenity": "pub",
        "name": "The Frog & Rosbif"
      }
    },
    {
      "type": "node",
      "id": 251125922,
      "lat": 48.8553135,
      "lon": 2.3591057,
      "tags": {
        "amenity": "pub",
        "name": "The Auld Alliance Scottish Pub"
      }
    },
    {
      "type": "node",
      "id": 251126259,
      "lat": 48.8573914,
      "lon": 2.3563278,
      "tags": {
        "amenity": "pub",
        "name": "Le Lizard Lounge"
      }
    },
    {
      "type": "node",
      "id": 251474112,
      "lat": 48.8526568,
      "lon": 2.3466795,
      "tags": {
        "amenity": "pub",
        "name": "Polly Magoo"
      }
    },
    {
      "type": "node",
      "id": 251474114,
      "lat": 48.8429944,
      "lon": 2.3495343,
      "tags": {
        "amenity": "pub",
        "name": "The Fifth Bar"
      }
    },
    {
      "type": "node",
      "id": 251474115,
      "lat": 48.8439768,
      "lon": 2.3494383,
      "tags": {
        "amenity": "pub",
        "name": "Le Vieux Chêne"
      }
    },
    {
      "type": "node",
      "id": 251474117,
      "lat": 48.8474495,
      "lon": 2.3471573,
      "tags": {
        "amenity": "pub",
        "name": "The Rhubarb"
      }
    },
    {
      "type": "node",
      "id": 252609211,
      "lat": 48.8659834,
      "lon": 2.3791601,
      "tags": {
        "amenity": "pub",
        "name": "Le Cithéa"
      }
    },
    {
      "type": "node",
      "id": 252610163,
      "lat": 48.8527123,
      "lon": 2.3742095,
      "tags": {
        "amenity": "pub",
        "name": "Entre Potes"
      }
    },
    {
      "type": "node",
      "id": 252961401,
      "lat": 48.8802602,
      "lon": 2.2852551,
      "tags": {
        "amenity": "pub",
        "email": "jamesjoyceparis@hotmail.com",
        "name": "James Joyce",
        "operator": "Kitty O'Shea's",
        "phone": "+33 (1) 44097032",
        "smoking": "no",
        "website": "http://www.kittyosheas.com/james_joyce_paris.asp",
        "wheelchair": "limited"
      }
    },
    {
      "type": "node",
      "id": 254005128,
      "lat": 48.8615333,
      "lon": 2.3574473,
      "tags": {
        "amenity": "pub",
        "name": "The Quiet Man"
      }
    },
    {
      "type": "node",
      "id": 257088173,
      "lat": 48.851478,
      "lon": 2.3379065,
      "tags": {
        "amenity": "pub",
        "name": "Fubar"
      }
    },
    {
      "type": "node",
      "id": 260016917,
      "lat": 48.8425186,
      "lon": 2.3236239,
      "tags": {
        "amenity": "pub",
        "name": "The Financier",
        "wheelchair": "no"
      }
    },
    {
      "type": "node",
      "id": 268058006,
      "lat": 48.8460429,
      "lon": 2.3238386,
      "tags": {
        "amenity": "pub",
        "name": "Forum Café"
      }
    },
    {
      "type": "node",
      "id": 274245832,
      "lat": 48.867235,
      "lon": 2.3692879,
      "tags": {
        "amenity": "pub",
        "name": "Ô Chateau, Paris Wine Tasting"
      }
    },
    {
      "type": "node",
      "id": 274247409,
      "lat": 48.8826925,
      "lon": 2.3828693,
      "tags": {
        "amenity": "pub",
        "name": "Kaskad' Café"
      }
    },
    {
      "type": "node",
      "id": 282490354,
      "lat": 48.8761301,
      "lon": 2.3377037,
      "tags": {
        "amenity": "pub",
        "name": "Le Syphax",
        "source": "survey"
      }
    },
    {
      "type": "node",
      "id": 293986548,
      "lat": 48.8632411,
      "lon": 2.3861008,
      "tags": {
        "amenity": "pub",
        "name": "Le Bistro Voltaire"
      }
    },
    {
      "type": "node",
      "id": 293986566,
      "lat": 48.8626607,
      "lon": 2.3872306,
      "tags": {
        "amenity": "pub",
        "name": "Au Rond Point"
      }
    },
    {
      "type": "node",
      "id": 297701601,
      "lat": 48.79896,
      "lon": 2.490292,
      "tags": {
        "amenity": "pub",
        "name": "Le Chat Teigne"
      }
    },
    {
      "type": "node",
      "id": 302245461,
      "lat": 48.8884003,
      "lon": 2.3790168,
      "tags": {
        "amenity": "pub",
        "created_by": "Potlatch 0.10c",
        "name": "Belushi's"
      }
    },
    {
      "type": "node",
      "id": 304964734,
      "lat": 48.8456068,
      "lon": 2.3428904,
      "tags": {
        "amenity": "pub",
        "name": "La Fonda"
      }
    },
    {
      "type": "node",
      "id": 305903405,
      "lat": 48.885156,
      "lon": 2.3252063,
      "tags": {
        "amenity": "pub",
        "created_by": "JOSM",
        "name": "Lush"
      }
    },
    {
      "type": "node",
      "id": 305903408,
      "lat": 48.8925878,
      "lon": 2.3271309,
      "tags": {
        "amenity": "pub",
        "created_by": "JOSM",
        "name": "Le Bar Belge"
      }
    },
    {
      "type": "node",
      "id": 308015251,
      "lat": 48.8717809,
      "lon": 2.3937884,
      "tags": {
        "amenity": "pub",
        "name": "Les Trois Arts"
      }
    },
    {
      "type": "node",
      "id": 310363590,
      "lat": 48.8456039,
      "lon": 2.3547969,
      "tags": {
        "addr:housenumber": "24",
        "addr:street": "Rue Linné",
        "amenity": "pub",
        "name": "Epsilon"
      }
    },
    {
      "type": "node",
      "id": 310363627,
      "lat": 48.8453724,
      "lon": 2.3548312,
      "tags": {
        "amenity": "pub",
        "name": "L'Inévitable"
      }
    },
    {
      "type": "node",
      "id": 319695790,
      "lat": 48.8324164,
      "lon": 2.371249,
      "tags": {
        "amenity": "pub",
        "name": "Shannon River"
      }
    },
    {
      "type": "node",
      "id": 329135152,
      "lat": 48.8522503,
      "lon": 2.3344195,
      "tags": {
        "amenity": "pub",
        "cuisine": "irish",
        "name": "Little Temple Bar",
        "wheelchair": "limited"
      }
    },
    {
      "type": "node",
      "id": 329976648,
      "lat": 48.8539901,
      "lon": 2.3267207,
      "tags": {
        "amenity": "pub",
        "name": "L'Abbaye"
      }
    },
    {
      "type": "node",
      "id": 415760035,
      "lat": 48.8620035,
      "lon": 2.348417,
      "tags": {
        "amenity": "pub"
      }
    },
    {
      "type": "node",
      "id": 418073931,
      "lat": 48.8661736,
      "lon": 2.384189,
      "tags": {
        "amenity": "pub",
        "name": "Le Montagnard"
      }
    },
    {
      "type": "node",
      "id": 418073939,
      "lat": 48.8666938,
      "lon": 2.3828675,
      "tags": {
        "amenity": "pub",
        "name": "Le Biarritz"
      }
    },
    {
      "type": "node",
      "id": 418074932,
      "lat": 48.8667481,
      "lon": 2.3822535,
      "tags": {
        "amenity": "pub",
        "name": "Café de Paris"
      }
    },
    {
      "type": "node",
      "id": 418079770,
      "lat": 48.8656937,
      "lon": 2.3771252,
      "tags": {
        "amenity": "pub",
        "name": "Quartier Général"
      }
    },
    {
      "type": "node",
      "id": 418080841,
      "lat": 48.8659421,
      "lon": 2.376902,
      "tags": {
        "amenity": "pub",
        "name": "Blue Billard"
      }
    },
    {
      "type": "node",
      "id": 418080842,
      "lat": 48.8661373,
      "lon": 2.3770649,
      "tags": {
        "amenity": "pub"
      }
    },
    {
      "type": "node",
      "id": 418140401,
      "lat": 48.8676415,
      "lon": 2.3754429,
      "tags": {
        "amenity": "pub"
      }
    },
    {
      "type": "node",
      "id": 418142037,
      "lat": 48.8687538,
      "lon": 2.379949,
      "tags": {
        "amenity": "pub",
        "name": "L'Assassin"
      }
    },
    {
      "type": "node",
      "id": 418142760,
      "lat": 48.8680763,
      "lon": 2.3782066,
      "tags": {
        "amenity": "pub",
        "name": "Onze"
      }
    },
    {
      "type": "node",
      "id": 420117472,
      "lat": 48.8769499,
      "lon": 2.3880263,
      "tags": {
        "amenity": "pub",
        "name": "L'Escargot"
      }
    },
    {
      "type": "node",
      "id": 428040634,
      "lat": 48.8494401,
      "lon": 2.377381,
      "tags": {
        "amenity": "pub",
        "name": "Le Baron Rouge"
      }
    },
    {
      "type": "node",
      "id": 428044663,
      "lat": 48.8494366,
      "lon": 2.3743781,
      "tags": {
        "amenity": "pub",
        "name": "La crosse"
      }
    },
    {
      "type": "node",
      "id": 428064691,
      "lat": 48.851673,
      "lon": 2.3781826,
      "tags": {
        "amenity": "pub"
      }
    },
    {
      "type": "node",
      "id": 428064695,
      "lat": 48.851652,
      "lon": 2.3783332,
      "tags": {
        "amenity": "pub"
      }
    },
    {
      "type": "node",
      "id": 432147330,
      "lat": 48.8644935,
      "lon": 2.3509011,
      "tags": {
        "amenity": "pub",
        "name": "Les Cariatides"
      }
    },
    {
      "type": "node",
      "id": 441162564,
      "lat": 48.8239465,
      "lon": 2.3043077,
      "tags": {
        "amenity": "pub",
        "name": "Le Timbre Poste"
      }
    },
    {
      "type": "node",
      "id": 442545880,
      "lat": 48.8723037,
      "lon": 2.3650913,
      "tags": {
        "amenity": "pub",
        "name": "Le Jemmapes"
      }
    },
    {
      "type": "node",
      "id": 446779465,
      "lat": 48.8753656,
      "lon": 2.3823741,
      "tags": {
        "addr:housenumber": "38",
        "addr:postcode": "75019",
        "addr:street": "Avenue Simón Bolívar",
        "amenity": "pub",
        "name": "Les Buttes Chaumont",
        "note": "café - restaurant"
      }
    },
    {
      "type": "node",
      "id": 446887015,
      "lat": 48.8711351,
      "lon": 2.2836966,
      "tags": {
        "amenity": "pub",
        "name": "The Honest Lawyer"
      }
    },
    {
      "type": "node",
      "id": 449554298,
      "lat": 48.8778514,
      "lon": 2.3157284,
      "tags": {
        "amenity": "pub",
        "name": "Brady's Irish Pub"
      }
    },
    {
      "type": "node",
      "id": 452420245,
      "lat": 48.8446173,
      "lon": 2.4401364,
      "tags": {
        "amenity": "pub",
        "name": "Australian Bar"
      }
    },
    {
      "type": "node",
      "id": 466373805,
      "lat": 48.8076069,
      "lon": 2.4713884,
      "tags": {
        "amenity": "pub",
        "name": "Le Riaume"
      }
    },
    {
      "type": "node",
      "id": 470330229,
      "lat": 48.8346469,
      "lon": 2.3049016,
      "tags": {
        "amenity": "pub",
        "name": "Le Café de la Poste"
      }
    },
    {
      "type": "node",
      "id": 471575730,
      "lat": 48.8472582,
      "lon": 2.4713464,
      "tags": {
        "amenity": "pub",
        "name": "Le Village"
      }
    },
    {
      "type": "node",
      "id": 473827211,
      "lat": 48.8393185,
      "lon": 2.3806604,
      "tags": {
        "amenity": "pub"
      }
    },
    {
      "type": "node",
      "id": 486096218,
      "lat": 48.847497,
      "lon": 2.3970587,
      "tags": {
        "amenity": "pub",
        "name": "Irish Corner"
      }
    },
    {
      "type": "node",
      "id": 508588181,
      "lat": 48.8502082,
      "lon": 2.3780865,
      "tags": {
        "amenity": "pub",
        "name": "Le Troll",
        "speciality": "Bières artisanales"
      }
    },
    {
      "type": "node",
      "id": 530751132,
      "lat": 48.8489233,
      "lon": 2.3748786,
      "tags": {
        "amenity": "pub",
        "name": "Le P'tit Coin de l'Opéra"
      }
    },
    {
      "type": "node",
      "id": 530896463,
      "lat": 48.848301,
      "lon": 2.3417712,
      "tags": {
        "amenity": "pub",
        "name": "Mad Maker"
      }
    },
    {
      "type": "node",
      "id": 534909894,
      "lat": 48.8458632,
      "lon": 2.375295,
      "tags": {
        "amenity": "pub",
        "name": "Le Maximilien"
      }
    },
    {
      "type": "node",
      "id": 534916265,
      "lat": 48.8469247,
      "lon": 2.3730534,
      "tags": {
        "amenity": "pub",
        "name": "Le Duc de Richelieu"
      }
    },
    {
      "type": "node",
      "id": 535873622,
      "lat": 48.8467932,
      "lon": 2.3690947,
      "tags": {
        "amenity": "pub",
        "name": "La Belle Époque"
      }
    },
    {
      "type": "node",
      "id": 536574152,
      "lat": 48.8308958,
      "lon": 2.376861,
      "tags": {
        "amenity": "pub",
        "happy_hours": "Mo-Fr 17:30-20:00",
        "name": "The Frog & British Library",
        "wheelchair": "yes"
      }
    },
    {
      "type": "node",
      "id": 539397543,
      "lat": 48.8500437,
      "lon": 2.3697078,
      "tags": {
        "amenity": "pub",
        "name": "L'OPA - Offre Publique d'Ambiance",
        "opening_hours": "We-Th 19:30-2:00; Fr-Sa 19:30-6:00",
        "phone": "0146281290"
      }
    },
    {
      "type": "node",
      "id": 582552434,
      "lat": 48.8585847,
      "lon": 2.3032822,
      "tags": {
        "amenity": "pub",
        "name": "Campanela",
        "source": "survey"
      }
    },
    {
      "type": "node",
      "id": 586568216,
      "lat": 48.8559133,
      "lon": 2.3670811,
      "tags": {
        "amenity": "pub",
        "name": "Café Martini"
      }
    },
    {
      "type": "node",
      "id": 596663985,
      "lat": 48.9061459,
      "lon": 2.2841585,
      "tags": {
        "amenity": "pub",
        "name": "Le cercle"
      }
    },
    {
      "type": "node",
      "id": 596664535,
      "lat": 48.9063027,
      "lon": 2.2837722,
      "tags": {
        "amenity": "pub"
      }
    },
    {
      "type": "node",
      "id": 609212551,
      "lat": 48.8330467,
      "lon": 2.3860133,
      "tags": {
        "amenity": "pub",
        "name": "The Frog at Bercy Village",
        "wheelchair": "limited"
      }
    },
    {
      "type": "node",
      "id": 616949403,
      "lat": 48.8092129,
      "lon": 2.2981439,
      "tags": {
        "amenity": "pub",
        "name": "La Place"
      }
    },
    {
      "type": "node",
      "id": 617541036,
      "lat": 48.8829327,
      "lon": 2.3181031,
      "tags": {
        "amenity": "pub",
        "name": "Trois pièces cuisine"
      }
    },
    {
      "type": "node",
      "id": 619174040,
      "lat": 48.8542764,
      "lon": 2.3406582,
      "tags": {
        "amenity": "pub",
        "name": "Bob Cool"
      }
    },
    {
      "type": "node",
      "id": 623423905,
      "lat": 48.8332913,
      "lon": 2.3338394,
      "tags": {
        "amenity": "pub",
        "name": "Café Oz",
        "website": "http://www.cafe-oz.com/bar-paris_14-5.html",
        "wheelchair": "yes"
      }
    },
    {
      "type": "node",
      "id": 624613486,
      "lat": 48.8573507,
      "lon": 2.3496668,
      "tags": {
        "amenity": "pub",
        "name": "The Green Linnet",
        "source": "cadastre-dgi-fr source : Direction Générale des Impôts - Cadastre ; mise à jour : 2010"
      }
    },
    {
      "type": "node",
      "id": 635864714,
      "lat": 48.8799557,
      "lon": 2.3862343,
      "tags": {
        "amenity": "pub",
        "name": "Rosa Bonheur",
        "old_name": "Pavillon du Chemin de Fer, Pavillon Weber",
        "wheelchair": "yes"
      }
    },
    {
      "type": "node",
      "id": 653878922,
      "lat": 48.8856788,
      "lon": 2.3405124,
      "tags": {
        "amenity": "pub",
        "name": "Au rendez vous des Amis"
      }
    },
    {
      "type": "node",
      "id": 654051531,
      "lat": 48.8299388,
      "lon": 2.2844286,
      "tags": {
        "amenity": "pub",
        "cuisine": "french",
        "food": "yes",
        "name": "Le Versailles",
        "source": "cadastre-dgi-fr source : Direction Générale des Impôts - Cadastre. Mise à jour : 2010"
      }
    },
    {
      "type": "node",
      "id": 661733150,
      "lat": 48.8442665,
      "lon": 2.497588,
      "tags": {
        "amenity": "pub",
        "cuisine": "portuguese",
        "name": "L'ABC"
      }
    },
    {
      "type": "node",
      "id": 667526203,
      "lat": 48.8289093,
      "lon": 2.2823683,
      "tags": {
        "amenity": "pub",
        "name": "Le Fontenoy"
      }
    },
    {
      "type": "node",
      "id": 669014548,
      "lat": 48.8281591,
      "lon": 2.2815065,
      "tags": {
        "amenity": "pub",
        "name": "Le Michelet",
        "source": "knowledge"
      }
    },
    {
      "type": "node",
      "id": 669075496,
      "lat": 48.8383289,
      "lon": 2.2982482,
      "tags": {
        "amenity": "pub",
        "name": "Le Brazza",
        "source": "knowledge"
      }
    },
    {
      "type": "node",
      "id": 676116665,
      "lat": 48.8451034,
      "lon": 2.3492462,
      "tags": {
        "amenity": "pub",
        "name": "Le Mayflower"
      }
    },
    {
      "type": "node",
      "id": 676116667,
      "lat": 48.8472832,
      "lon": 2.3477251,
      "tags": {
        "amenity": "pub",
        "name": "Le Piano Vache"
      }
    },
    {
      "type": "node",
      "id": 676116669,
      "lat": 48.8470809,
      "lon": 2.3486565,
      "tags": {
        "amenity": "pub",
        "name": "Le Melocoton"
      }
    },
    {
      "type": "node",
      "id": 676860118,
      "lat": 48.8582957,
      "lon": 2.3474796,
      "tags": {
        "addr:housenumber": "4",
        "addr:street": "Rue Saint-Denis",
        "amenity": "pub",
        "name": "Au Trappiste",
        "phone": "+33 0142330850",
        "postcode": "75001"
      }
    },
    {
      "type": "node",
      "id": 676860175,
      "lat": 48.8592361,
      "lon": 2.3476099,
      "tags": {
        "amenity": "pub",
        "name": "Le Petit Châtelet",
        "source": "cadastre-dgi-fr source : Direction Générale des Impôts - Cadastre. Mise à jour : 2010"
      }
    },
    {
      "type": "node",
      "id": 677967821,
      "lat": 48.8597051,
      "lon": 2.3483832,
      "tags": {
        "addr:city": "Paris",
        "addr:country": "FR",
        "addr:housenumber": "46",
        "addr:street": "Rue des Lombards",
        "amenity": "pub",
        "name": "Hide Out",
        "source": "cadastre-dgi-fr source : Direction Générale des Impôts - Cadastre. Mise à jour : 2010"
      }
    },
    {
      "type": "node",
      "id": 683603985,
      "lat": 48.848097,
      "lon": 2.346909,
      "tags": {
        "amenity": "pub",
        "name": "Le Pub Saint-Hillaire"
      }
    },
    {
      "type": "node",
      "id": 687750878,
      "lat": 48.8692036,
      "lon": 2.3392113,
      "tags": {
        "amenity": "pub",
        "name": "O'Malley",
        "source": "cadastre-dgi-fr source : Direction Générale des Impôts - Cadastre. Mise à jour : 2010"
      }
    },
    {
      "type": "node",
      "id": 690288258,
      "lat": 48.8441429,
      "lon": 2.35475,
      "tags": {
        "amenity": "pub",
        "name": "Les Cigognes"
      }
    },
    {
      "type": "node",
      "id": 701748593,
      "lat": 48.8533299,
      "lon": 2.3424383,
      "tags": {
        "addr:housenumber": "28",
        "addr:street": "Rue Saint-André des Arts",
        "amenity": "pub",
        "name": "Concoran's Irish Pub",
        "source": "cadastre-dgi-fr source : Direction Générale des Impôts - Cadastre. Mise à jour : 2010"
      }
    },
    {
      "type": "node",
      "id": 702973627,
      "lat": 48.839483,
      "lon": 2.3006604,
      "tags": {
        "amenity": "pub",
        "name": "A Vaugirard"
      }
    },
    {
      "type": "node",
      "id": 703122472,
      "lat": 48.8433232,
      "lon": 2.3528098,
      "tags": {
        "amenity": "pub",
        "name": "The Local",
        "source": "cadastre-dgi-fr source : Direction Générale des Impôts - Cadastre ; mise à jour : 2010"
      }
    },
    {
      "type": "node",
      "id": 703584608,
      "lat": 48.8451155,
      "lon": 2.4345033,
      "tags": {
        "amenity": "pub",
        "name": "Le Blason"
      }
    },
    {
      "type": "node",
      "id": 707856537,
      "lat": 48.872304,
      "lon": 2.353512,
      "tags": {
        "amenity": "pub",
        "name": "Tribal Café"
      }
    },
    {
      "type": "node",
      "id": 724982895,
      "lat": 48.8643899,
      "lon": 2.3635207,
      "tags": {
        "addr:housenumber": "32",
        "addr:street": "Rue de Picardie",
        "amenity": "pub",
        "name": "Café Rouge",
        "opening_hours": "Mo-Su 09:00-02:00",
        "source": "cadastre-dgi-fr source : Direction Générale des Impôts - Cadastre. Mise à jour : 2010"
      }
    },
    {
      "type": "node",
      "id": 726579049,
      "lat": 48.847042,
      "lon": 2.341388,
      "tags": {
        "addr:city": "Paris",
        "addr:street": "Rue Soufflot",
        "amenity": "pub",
        "atm": "no",
        "cuisine": "french",
        "food": "yes",
        "internet_access": "no",
        "name": "La Gueuze",
        "outdoor_seating": "yes",
        "smoking": "outside",
        "takeaway": "no"
      }
    },
    {
      "type": "node",
      "id": 733174289,
      "lat": 48.8688813,
      "lon": 2.3296955,
      "tags": {
        "amenity": "pub",
        "name": "Kitty O'Sheas"
      }
    },
    {
      "type": "node",
      "id": 735171923,
      "lat": 48.8816895,
      "lon": 2.3656251,
      "tags": {
        "amenity": "pub"
      }
    },
    {
      "type": "node",
      "id": 741213238,
      "lat": 48.8392433,
      "lon": 2.3391037,
      "tags": {
        "amenity": "pub",
        "name": "Académie de la Bière",
        "source": "cadastre-dgi-fr source : Direction Générale des Impôts - Cadastre ; mise à jour : 2010"
      }
    },
    {
      "type": "node",
      "id": 745086544,
      "lat": 48.8520344,
      "lon": 2.3993968,
      "tags": {
        "amenity": "pub",
        "name": "Bouillon belge"
      }
    },
    {
      "type": "node",
      "id": 765953481,
      "lat": 48.9138568,
      "lon": 2.2876761,
      "tags": {
        "amenity": "pub"
      }
    },
    {
      "type": "node",
      "id": 772600427,
      "lat": 48.8033503,
      "lon": 2.3319077,
      "tags": {
        "amenity": "pub",
        "name": "L'Océan Bleu",
        "note": "Bar - Restaurant"
      }
    },
    {
      "type": "node",
      "id": 774899522,
      "lat": 48.8024782,
      "lon": 2.4331858,
      "tags": {
        "amenity": "pub"
      }
    },
    {
      "type": "node",
      "id": 787964024,
      "lat": 48.8426139,
      "lon": 2.3298989,
      "tags": {
        "amenity": "pub",
        "name": "Shannon Pub",
        "source": "cadastre-dgi-fr source : Direction Générale des Impôts - Cadastre. Mise à jour : 2010",
        "wheelchair": "no"
      }
    },
    {
      "type": "node",
      "id": 815764595,
      "lat": 48.8732551,
      "lon": 2.3241335,
      "tags": {
        "amenity": "pub",
        "name": "The Cricketer",
        "source": "cadastre-dgi-fr source : Direction Générale des Impôts - Cadastre. Mise à jour : 2010"
      }
    },
    {
      "type": "node",
      "id": 817222817,
      "lat": 48.874698,
      "lon": 2.3252714,
      "tags": {
        "amenity": "pub",
        "name": "Pub Saint-Lazare",
        "source": "cadastre-dgi-fr source : Direction Générale des Impôts - Cadastre. Mise à jour : 2010"
      }
    },
    {
      "type": "node",
      "id": 828138856,
      "lat": 48.8729879,
      "lon": 2.3074334,
      "tags": {
        "amenity": "pub",
        "name": "The Bowler",
        "source": "cadastre-dgi-fr source : Direction Générale des Impôts - Cadastre. Mise à jour : 2010"
      }
    },
    {
      "type": "node",
      "id": 829051469,
      "lat": 48.8722006,
      "lon": 2.3040149,
      "tags": {
        "amenity": "pub",
        "name": "The Freedom",
        "source": "cadastre-dgi-fr source : Direction Générale des Impôts - Cadastre. Mise à jour : 2010"
      }
    },
    {
      "type": "node",
      "id": 839185365,
      "lat": 48.846424,
      "lon": 2.408557,
      "tags": {
        "amenity": "pub",
        "name": "La Taverne de la Voûte"
      }
    },
    {
      "type": "node",
      "id": 839816780,
      "lat": 48.864677,
      "lon": 2.399249,
      "tags": {
        "amenity": "pub"
      }
    },
    {
      "type": "node",
      "id": 877958897,
      "lat": 48.8832736,
      "lon": 2.3614499,
      "tags": {
        "amenity": "pub",
        "name": "Le Fiacre"
      }
    },
    {
      "type": "node",
      "id": 877959052,
      "lat": 48.883995,
      "lon": 2.3594946,
      "tags": {
        "amenity": "pub",
        "name": "La Rotonde"
      }
    },
    {
      "type": "node",
      "id": 884493112,
      "lat": 48.882725,
      "lon": 2.3591597,
      "tags": {
        "amenity": "pub",
        "cuisine": "indian",
        "name": "Dishny"
      }
    },
    {
      "type": "node",
      "id": 891069088,
      "lat": 48.8796109,
      "lon": 2.357412,
      "tags": {
        "amenity": "pub",
        "name": "La ville D'Aulnay"
      }
    },
    {
      "type": "node",
      "id": 906036878,
      "lat": 48.854971,
      "lon": 2.370733,
      "tags": {
        "addr:housenumber": "13",
        "addr:street": "Rue Daval",
        "amenity": "pub",
        "name": "Lêche vin",
        "opening_hours": "18:00-02:00",
        "phone": "0143559891"
      }
    },
    {
      "type": "node",
      "id": 921881553,
      "lat": 48.8815009,
      "lon": 2.3685984,
      "tags": {
        "amenity": "pub",
        "name": "Le Point Ephémère"
      }
    },
    {
      "type": "node",
      "id": 997919811,
      "lat": 48.8848152,
      "lon": 2.3606854,
      "tags": {
        "amenity": "pub"
      }
    },
    {
      "type": "node",
      "id": 997919835,
      "lat": 48.88463,
      "lon": 2.3608651,
      "tags": {
        "amenity": "pub",
        "name": "La Royale"
      }
    },
    {
      "type": "node",
      "id": 998667382,
      "lat": 48.8860315,
      "lon": 2.2576288,
      "tags": {
        "amenity": "pub",
        "name": "Saint-John",
        "source": "survey"
      }
    },
    {
      "type": "node",
      "id": 1007326468,
      "lat": 48.8766152,
      "lon": 2.3574727,
      "tags": {
        "amenity": "pub",
        "name": "Extérieur Quai"
      }
    },
    {
      "type": "node",
      "id": 1020227377,
      "lat": 48.8713989,
      "lon": 2.3748429,
      "tags": {
        "amenity": "pub",
        "name": "Le Faubourg"
      }
    },
    {
      "type": "node",
      "id": 1020227449,
      "lat": 48.8717746,
      "lon": 2.3758883,
      "tags": {
        "amenity": "pub",
        "name": "Le Jean Bar",
        "tobacco": "yes"
      }
    },
    {
      "type": "node",
      "id": 1020227490,
      "lat": 48.8719061,
      "lon": 2.3762543,
      "tags": {
        "amenity": "pub",
        "name": "Le Zorba",
        "wheelchair": "no"
      }
    },
    {
      "type": "node",
      "id": 1020352074,
      "lat": 48.871592,
      "lon": 2.3753803,
      "tags": {
        "amenity": "pub",
        "name": "La Source"
      }
    },
    {
      "type": "node",
      "id": 1020391890,
      "lat": 48.8710718,
      "lon": 2.3739992,
      "tags": {
        "amenity": "pub",
        "name": "Le Progrès"
      }
    },
    {
      "type": "node",
      "id": 1020780010,
      "lat": 48.870156,
      "lon": 2.3711369,
      "tags": {
        "amenity": "pub",
        "name": "Floréal"
      }
    },
    {
      "type": "node",
      "id": 1022803184,
      "lat": 48.870763,
      "lon": 2.3736928,
      "tags": {
        "amenity": "pub",
        "name": "Le Café du Théatre"
      }
    },
    {
      "type": "node",
      "id": 1035459648,
      "lat": 48.9233721,
      "lon": 2.3629031,
      "tags": {
        "amenity": "pub",
        "name": "Le France"
      }
    },
    {
      "type": "node",
      "id": 1035459707,
      "lat": 48.9239852,
      "lon": 2.3628599,
      "tags": {
        "addr:housenumber": "23",
        "addr:street": "Rue Jules Rimet",
        "amenity": "pub",
        "name": "Les 3 Brasseurs"
      }
    },
    {
      "type": "node",
      "id": 1035711035,
      "lat": 48.8862598,
      "lon": 2.3626862,
      "tags": {
        "amenity": "pub",
        "name": "Au rendez-vous des chauffeurs"
      }
    },
    {
      "type": "node",
      "id": 1035711050,
      "lat": 48.8860205,
      "lon": 2.3612559,
      "tags": {
        "amenity": "pub",
        "name": "La Coupole"
      }
    },
    {
      "type": "node",
      "id": 1035728774,
      "lat": 48.8897668,
      "lon": 2.3683274,
      "tags": {
        "amenity": "pub",
        "name": "Le Pascali"
      }
    },
    {
      "type": "node",
      "id": 1035778113,
      "lat": 48.8874695,
      "lon": 2.367275,
      "tags": {
        "amenity": "pub",
        "name": "Lez'Arts"
      }
    },
    {
      "type": "node",
      "id": 1035778132,
      "lat": 48.88738,
      "lon": 2.3672402,
      "tags": {
        "amenity": "pub",
        "name": "Brasserie du Parc"
      }
    },
    {
      "type": "node",
      "id": 1046316249,
      "lat": 48.8900187,
      "lon": 2.3629443,
      "tags": {
        "amenity": "pub",
        "name": "Au RDV du voyage"
      }
    },
    {
      "type": "node",
      "id": 1054432204,
      "lat": 48.8321896,
      "lon": 2.2529663,
      "tags": {
        "amenity": "pub",
        "name": "The Corner",
        "source": "survey"
      }
    },
    {
      "type": "node",
      "id": 1085585236,
      "lat": 48.8281782,
      "lon": 2.250203,
      "tags": {
        "amenity": "pub",
        "name": "Le Sunset",
        "source": "survey"
      }
    },
    {
      "type": "node",
      "id": 1111551181,
      "lat": 48.8938517,
      "lon": 2.2838394,
      "tags": {
        "amenity": "pub"
      }
    },
    {
      "type": "node",
      "id": 1118434386,
      "lat": 48.8224551,
      "lon": 2.2678473,
      "tags": {
        "amenity": "pub"
      }
    },
    {
      "type": "node",
      "id": 1126088147,
      "lat": 48.8611575,
      "lon": 2.3438966,
      "tags": {
        "amenity": "pub",
        "cuisine": "french",
        "name": "L'Express"
      }
    },
    {
      "type": "node",
      "id": 1129273824,
      "lat": 48.8226335,
      "lon": 2.3469267,
      "tags": {
        "amenity": "pub",
        "name": "N°13",
        "note": "bar/brasserie"
      }
    },
    {
      "type": "node",
      "id": 1134402749,
      "lat": 48.8471167,
      "lon": 2.3485711,
      "tags": {
        "amenity": "pub",
        "name": "Hurling Pub",
        "source": "cadastre-dgi-fr source : Direction Générale des Impôts - Cadastre. Mise à jour : 2011",
        "wheelchair": "no"
      }
    },
    {
      "type": "node",
      "id": 1140477414,
      "lat": 48.8414796,
      "lon": 2.3258678,
      "tags": {
        "addr:city": "Paris",
        "addr:housenumber": "30",
        "addr:postcode": "75014",
        "addr:street": "Rue Delambre",
        "amenity": "pub",
        "brewery": "Leffe;Leffe Ruby",
        "cuisine": "french",
        "name": "Ty jos",
        "note": "Pub breton, crêperie. Musique à la cave jeudi, vendredi ..."
      }
    },
    {
      "type": "node",
      "id": 1186043590,
      "lat": 48.8435438,
      "lon": 2.2934604,
      "tags": {
        "amenity": "pub",
        "name": "Music pub"
      }
    },
    {
      "type": "node",
      "id": 1222301319,
      "lat": 48.9198176,
      "lon": 2.3450792,
      "tags": {
        "amenity": "pub",
        "name": "Le Pleyel"
      }
    },
    {
      "type": "node",
      "id": 1224788533,
      "lat": 48.8554207,
      "lon": 2.4011828,
      "tags": {
        "amenity": "pub",
        "name": "Le Moderne"
      }
    },
    {
      "type": "node",
      "id": 1224795728,
      "lat": 48.8505216,
      "lon": 2.386284,
      "tags": {
        "amenity": "pub",
        "name": "Patrick’s Ballon Vert",
        "wheelchair": "limited"
      }
    },
    {
      "type": "node",
      "id": 1224795730,
      "lat": 48.8503732,
      "lon": 2.3908375,
      "tags": {
        "amenity": "pub"
      }
    },
    {
      "type": "node",
      "id": 1235153111,
      "lat": 48.8717823,
      "lon": 2.3424721,
      "tags": {
        "amenity": "pub",
        "name": "Café Oz"
      }
    },
    {
      "type": "node",
      "id": 1264662419,
      "lat": 48.8773925,
      "lon": 2.3384012,
      "tags": {
        "amenity": "pub",
        "name": "Le Bergerac"
      }
    },
    {
      "type": "node",
      "id": 1265023391,
      "lat": 48.8503624,
      "lon": 2.3488792,
      "tags": {
        "amenity": "pub",
        "name": "The Long Hop"
      }
    },
    {
      "type": "node",
      "id": 1278464712,
      "lat": 48.8793095,
      "lon": 2.3546327,
      "tags": {
        "addr:city": "Paris",
        "addr:country": "FR",
        "addr:housenumber": "8",
        "addr:postcode": "75010",
        "addr:street": "Boulevard de Denain",
        "amenity": "pub",
        "atm": "no",
        "food": "yes",
        "internet_access": "no",
        "name": "Hide out Station",
        "outdoor_seating": "yes",
        "smoking": "outside",
        "takeaway": "no",
        "wifi": "no"
      }
    },
    {
      "type": "node",
      "id": 1300595247,
      "lat": 48.8357188,
      "lon": 2.2496147,
      "tags": {
        "amenity": "pub",
        "name": "Le Sablier",
        "source": "survey"
      }
    },
    {
      "type": "node",
      "id": 1300607554,
      "lat": 48.8767578,
      "lon": 2.2885461,
      "tags": {
        "amenity": "pub",
        "name": "Saint-Andrews"
      }
    },
    {
      "type": "node",
      "id": 1302121018,
      "lat": 48.8856715,
      "lon": 2.2588249,
      "tags": {
        "amenity": "pub"
      }
    },
    {
      "type": "node",
      "id": 1401461536,
      "lat": 48.8843744,
      "lon": 2.3678166,
      "tags": {
        "amenity": "pub",
        "name": "Au Roi du café"
      }
    },
    {
      "type": "node",
      "id": 1440883085,
      "lat": 48.8371288,
      "lon": 2.3917395,
      "tags": {
        "amenity": "pub",
        "name": "La Chope",
        "source": "cadastre-dgi-fr source : Direction Générale des Impôts - Cadastre. Mise à jour : 2011"
      }
    },
    {
      "type": "node",
      "id": 1481765838,
      "lat": 48.8713898,
      "lon": 2.3354731,
      "tags": {
        "amenity": "pub",
        "name": "Léon de Bruxelles"
      }
    },
    {
      "type": "node",
      "id": 1483017724,
      "lat": 48.8768033,
      "lon": 2.3372248,
      "tags": {
        "amenity": "pub",
        "name": "Le Saint-Georges",
        "smoking": "no"
      }
    },
    {
      "type": "node",
      "id": 1484054976,
      "lat": 48.8717139,
      "lon": 2.3340286,
      "tags": {
        "amenity": "pub",
        "name": "Murphy's House",
        "website": "http://www.murphyshouse.com"
      }
    },
    {
      "type": "node",
      "id": 1484054990,
      "lat": 48.8716898,
      "lon": 2.3334554,
      "tags": {
        "amenity": "pub"
      }
    },
    {
      "type": "node",
      "id": 1486313953,
      "lat": 48.8711315,
      "lon": 2.3440128,
      "tags": {
        "amenity": "pub",
        "email": "contact@corcorans.fr",
        "name": "Corcoran's",
        "phone": "+33 1 40 39 00 16",
        "website": "www.corcorans.fr"
      }
    },
    {
      "type": "node",
      "id": 1486313987,
      "lat": 48.8709873,
      "lon": 2.3449321,
      "tags": {
        "amenity": "pub",
        "name": "James Hetfeeld's Pub"
      }
    },
    {
      "type": "node",
      "id": 1486314048,
      "lat": 48.8737265,
      "lon": 2.3505928,
      "tags": {
        "amenity": "pub",
        "name": "Le Vizir"
      }
    },
    {
      "type": "node",
      "id": 1489467285,
      "lat": 48.87578,
      "lon": 2.3396684,
      "tags": {
        "amenity": "pub",
        "name": "Le Monaco",
        "smoking": "no",
        "source": "survey"
      }
    },
    {
      "type": "node",
      "id": 1506448896,
      "lat": 48.8275665,
      "lon": 2.3493951,
      "tags": {
        "amenity": "pub"
      }
    },
    {
      "type": "node",
      "id": 1506480687,
      "lat": 48.8747866,
      "lon": 2.3414819,
      "tags": {
        "amenity": "pub",
        "internet_access": "no",
        "name": "Saint-Georges' Tavern",
        "smoking": "isolated"
      }
    },
    {
      "type": "node",
      "id": 1514201692,
      "lat": 48.8952846,
      "lon": 2.2510001,
      "tags": {
        "amenity": "pub",
        "name": "Garden Café",
        "wheelchair": "yes"
      }
    },
    {
      "type": "node",
      "id": 1541591962,
      "lat": 48.8695851,
      "lon": 2.374433,
      "tags": {
        "amenity": "pub",
        "name": "Les Artistes Pub",
        "source": "survey"
      }
    },
    {
      "type": "node",
      "id": 1564466945,
      "lat": 48.8484593,
      "lon": 2.3503756,
      "tags": {
        "amenity": "pub"
      }
    },
    {
      "type": "node",
      "id": 1605061495,
      "lat": 48.8704717,
      "lon": 2.3031606,
      "tags": {
        "amenity": "pub",
        "food": "yes",
        "name": "Cottage Elysée"
      }
    },
    {
      "type": "node",
      "id": 1616811990,
      "lat": 48.8634629,
      "lon": 2.3440772,
      "tags": {
        "addr:housenumber": "5",
        "addr:postcode": "75001",
        "addr:street": "Rue du Jour",
        "amenity": "pub",
        "name": "Quigley's Point"
      }
    },
    {
      "type": "node",
      "id": 1618621677,
      "lat": 48.9058642,
      "lon": 2.281728,
      "tags": {
        "amenity": "pub",
        "name": "Le Tendance"
      }
    },
    {
      "type": "node",
      "id": 1667546981,
      "lat": 48.8334354,
      "lon": 2.3313239,
      "tags": {
        "amenity": "pub",
        "cuisine": "french",
        "name": "Café Daguerre",
        "wheelchair": "limited"
      }
    },
    {
      "type": "node",
      "id": 1692228848,
      "lat": 48.8186087,
      "lon": 2.2494343,
      "tags": {
        "amenity": "pub"
      }
    },
    {
      "type": "node",
      "id": 1736157828,
      "lat": 48.8535516,
      "lon": 2.3746079,
      "tags": {
        "addr:housenumber": "8",
        "addr:postcode": "75011",
        "addr:street": "Passage Thiéré",
        "amenity": "pub",
        "name": "La mécanique ondulatoire",
        "source": "www.myspace.com/lamecanique",
        "website": "www.myspace.com/lamecanique"
      }
    },
    {
      "type": "node",
      "id": 1749482065,
      "lat": 48.8199136,
      "lon": 2.4752354,
      "tags": {
        "addr:city": "Joinville-le-Pont",
        "addr:postcode": "94340",
        "amenity": "pub",
        "name": "Soul Cat",
        "wifi": "yes"
      }
    },
    {
      "type": "node",
      "id": 1763203309,
      "lat": 48.887753,
      "lon": 2.3182328,
      "tags": {
        "amenity": "pub",
        "name": "Le Manoir",
        "wifi": "yes"
      }
    },
    {
      "type": "node",
      "id": 1765229208,
      "lat": 48.8827209,
      "lon": 2.3281869,
      "tags": {
        "amenity": "pub",
        "name": "Brasserie des Banques"
      }
    },
    {
      "type": "node",
      "id": 1768572992,
      "lat": 48.8193517,
      "lon": 2.3042417,
      "tags": {
        "addr:housenumber": "107",
        "amenity": "pub",
        "name": "L'Oustalou"
      }
    },
    {
      "type": "node",
      "id": 1778519709,
      "lat": 48.8519186,
      "lon": 2.3373763,
      "tags": {
        "amenity": "pub",
        "name": "Les Caves Alliées"
      }
    },
    {
      "type": "node",
      "id": 1793527745,
      "lat": 48.8729261,
      "lon": 2.3537842,
      "tags": {
        "amenity": "pub",
        "cuisine": "french",
        "name": "La Ferme"
      }
    },
    {
      "type": "node",
      "id": 1793527747,
      "lat": 48.8729261,
      "lon": 2.3542213,
      "tags": {
        "amenity": "pub",
        "name": "Le Napoléon"
      }
    },
    {
      "type": "node",
      "id": 1800349948,
      "lat": 48.827658,
      "lon": 2.35001,
      "tags": {
        "amenity": "pub",
        "name": "Chez Michel"
      }
    },
    {
      "type": "node",
      "id": 1802275517,
      "lat": 48.9014992,
      "lon": 2.3033005,
      "tags": {
        "amenity": "pub"
      }
    },
    {
      "type": "node",
      "id": 1813684597,
      "lat": 48.8449764,
      "lon": 2.3549028,
      "tags": {
        "amenity": "pub",
        "name": "Les Arènes"
      }
    },
    {
      "type": "node",
      "id": 1823551400,
      "lat": 48.8814226,
      "lon": 2.3285073,
      "tags": {
        "amenity": "pub",
        "name": "Parme Clichy"
      }
    },
    {
      "type": "node",
      "id": 1823551410,
      "lat": 48.8817375,
      "lon": 2.3283675,
      "tags": {
        "addr:housenumber": "64",
        "addr:street": "Rue de Clichy",
        "amenity": "pub",
        "name": "The Coq & Bulldog",
        "phone": "+33-9-82405636",
        "website": "http://www.facebook.com/pages/The-Coq-Bulldog-Pub/226637367401560"
      }
    },
    {
      "type": "node",
      "id": 1824374964,
      "lat": 48.8578918,
      "lon": 2.3464512,
      "tags": {
        "addr:housenumber": "17",
        "addr:street": "Avenue Victoria",
        "amenity": "pub",
        "name": "Le Dernier Bar Avant la Fin du Monde",
        "phone": "+33-1-53009895",
        "website": "www.dernierbar.com"
      }
    },
    {
      "type": "node",
      "id": 1824509155,
      "lat": 48.874194,
      "lon": 2.3328635,
      "tags": {
        "amenity": "pub",
        "name": "Le Vizir",
        "source": "survey",
        "tobacco": "yes"
      }
    },
    {
      "type": "node",
      "id": 1827138892,
      "lat": 48.8765236,
      "lon": 2.3405893,
      "tags": {
        "amenity": "pub",
        "name": "Le Fontenoy",
        "smoking": "no"
      }
    },
    {
      "type": "node",
      "id": 1827138893,
      "lat": 48.8765034,
      "lon": 2.3395297,
      "tags": {
        "amenity": "pub",
        "name": "Le Havane",
        "tobacco": "yes"
      }
    },
    {
      "type": "node",
      "id": 1865299715,
      "lat": 48.8865801,
      "lon": 2.3354932,
      "tags": {
        "amenity": "pub"
      }
    },
    {
      "type": "node",
      "id": 1875819752,
      "lat": 48.8846517,
      "lon": 2.3291078,
      "tags": {
        "amenity": "pub",
        "internet_access": "no",
        "name": "Clichy's Tavern",
        "source": "local_knowledge"
      }
    },
    {
      "type": "node",
      "id": 1875831351,
      "lat": 48.8847087,
      "lon": 2.3292716,
      "tags": {
        "addr:housenumber": "128",
        "addr:postcode": "75018",
        "addr:street": "Boulevard de Clichy",
        "amenity": "pub",
        "name": "Palace Café"
      }
    },
    {
      "type": "node",
      "id": 1905655546,
      "lat": 48.8526083,
      "lon": 2.3466482,
      "tags": {
        "amenity": "pub",
        "name": "Shywawa"
      }
    },
    {
      "type": "node",
      "id": 1951465699,
      "lat": 48.8556888,
      "lon": 2.4005126,
      "tags": {
        "addr:housename": "Café de la Chope",
        "amenity": "pub",
        "name": "La Chope"
      }
    },
    {
      "type": "node",
      "id": 2011451022,
      "lat": 48.8412533,
      "lon": 2.417748,
      "tags": {
        "amenity": "pub"
      }
    },
    {
      "type": "node",
      "id": 2078512771,
      "lat": 48.8743652,
      "lon": 2.3625584,
      "tags": {
        "amenity": "pub",
        "name": "L'atmosphere"
      }
    },
    {
      "type": "node",
      "id": 2081656009,
      "lat": 48.8713202,
      "lon": 2.365856,
      "tags": {
        "addr:housenumber": "70",
        "addr:postcode": "75010",
        "addr:street": "Quai de Jemmapes",
        "amenity": "pub",
        "name": "The Cork and Cavan"
      }
    },
    {
      "type": "node",
      "id": 2084076530,
      "lat": 48.8142316,
      "lon": 2.3612488,
      "tags": {
        "addr:city": "Le Kremlin-Bicêtre",
        "addr:housenumber": "23",
        "addr:postcode": "94270",
        "addr:street": "Avenue de Fontainebleau",
        "amenity": "pub",
        "entrance": "main",
        "name": "New Billard",
        "sport": "billard",
        "website": "http://www.new-billard.fr",
        "wheelchair": "no"
      }
    },
    {
      "type": "node",
      "id": 2086399144,
      "lat": 48.8428397,
      "lon": 2.3260649,
      "tags": {
        "amenity": "pub",
        "name": "Le Falstaff"
      }
    },
    {
      "type": "node",
      "id": 2206746831,
      "lat": 48.8772965,
      "lon": 2.4093947,
      "tags": {
        "amenity": "pub",
        "name": "Corcoran's"
      }
    },
    {
      "type": "node",
      "id": 2210579328,
      "lat": 48.8192694,
      "lon": 2.3029566,
      "tags": {
        "amenity": "pub",
        "name": "La Rose des Sables",
        "source": "survey"
      }
    },
    {
      "type": "node",
      "id": 2213842106,
      "lat": 48.8215568,
      "lon": 2.3044424,
      "tags": {
        "amenity": "pub",
        "name": "La Divette de Malakoff",
        "source": "survey"
      }
    },
    {
      "type": "node",
      "id": 2213842109,
      "lat": 48.8218391,
      "lon": 2.2996434,
      "tags": {
        "amenity": "pub",
        "name": "Le Pareloup"
      }
    },
    {
      "type": "node",
      "id": 2234720465,
      "lat": 48.8686121,
      "lon": 2.3859914,
      "tags": {
        "amenity": "pub",
        "name": "Demain c'est loin"
      }
    },
    {
      "type": "node",
      "id": 2245381991,
      "lat": 48.8902738,
      "lon": 2.3602615,
      "tags": {
        "amenity": "pub",
        "name": "Au Roi du Café",
        "website": "http://www.auroiducafe.com/"
      }
    },
    {
      "type": "node",
      "id": 2245452103,
      "lat": 48.8889739,
      "lon": 2.3623979,
      "tags": {
        "amenity": "pub",
        "name": "Paris Pajol",
        "website": "https://www.facebook.com/pages/Paris-Pajol-Bar-Restaurant/50837276428"
      }
    },
    {
      "type": "node",
      "id": 2247185908,
      "lat": 48.8899355,
      "lon": 2.3618064,
      "tags": {
        "amenity": "pub",
        "name": "Le Blanco",
        "tobacco": "yes"
      }
    },
    {
      "type": "node",
      "id": 2247185911,
      "lat": 48.8911052,
      "lon": 2.3611596,
      "tags": {
        "amenity": "pub",
        "name": "Le Commerce"
      }
    },
    {
      "type": "node",
      "id": 2247185914,
      "lat": 48.8908416,
      "lon": 2.361185,
      "tags": {
        "amenity": "pub",
        "name": "Le Monde de Léa"
      }
    },
    {
      "type": "node",
      "id": 2258450453,
      "lat": 48.890155,
      "lon": 2.3611961,
      "tags": {
        "amenity": "pub",
        "name": "Café de la Poste"
      }
    },
    {
      "type": "node",
      "id": 2258450459,
      "lat": 48.8900693,
      "lon": 2.3622119,
      "tags": {
        "amenity": "pub",
        "name": "Populettes",
        "phone": "0980374147",
        "website": "https://www.facebook.com/populettes"
      }
    },
    {
      "type": "node",
      "id": 2268459863,
      "lat": 48.8900062,
      "lon": 2.3627825,
      "tags": {
        "amenity": "pub",
        "name": "Le Riquet"
      }
    },
    {
      "type": "node",
      "id": 2268459870,
      "lat": 48.8913601,
      "lon": 2.3631469,
      "tags": {
        "amenity": "pub",
        "name": "Triangle d'or"
      }
    },
    {
      "type": "node",
      "id": 2268459882,
      "lat": 48.8899105,
      "lon": 2.3620699,
      "tags": {
        "alt_name": "Au Bon Couscous",
        "amenity": "pub",
        "name": "Le Bon Couscous"
      }
    },
    {
      "type": "node",
      "id": 2270829889,
      "lat": 48.881743,
      "lon": 2.3657091,
      "tags": {
        "amenity": "pub"
      }
    },
    {
      "type": "node",
      "id": 2274029184,
      "lat": 48.8901067,
      "lon": 2.36183,
      "tags": {
        "amenity": "pub",
        "name": "La Chope à Mou's"
      }
    },
    {
      "type": "node",
      "id": 2279508873,
      "lat": 48.8901377,
      "lon": 2.3597002,
      "tags": {
        "amenity": "pub",
        "name": "Café de la Poste"
      }
    },
    {
      "type": "node",
      "id": 2279711294,
      "lat": 48.8908511,
      "lon": 2.3602853,
      "tags": {
        "amenity": "pub",
        "name": "La Petite Chope"
      }
    },
    {
      "type": "node",
      "id": 2279711295,
      "lat": 48.8916443,
      "lon": 2.359603,
      "tags": {
        "amenity": "pub",
        "name": "Le Bergerac"
      }
    },
    {
      "type": "node",
      "id": 2280474429,
      "lat": 48.8763515,
      "lon": 2.3877118,
      "tags": {
        "addr:housenumber": "8",
        "addr:postcode": "75019",
        "addr:street": "Rue Fessart",
        "amenity": "pub",
        "name": "Le Mustang",
        "phone": "09 51 24 20 97"
      }
    },
    {
      "type": "node",
      "id": 2284410407,
      "lat": 48.8999979,
      "lon": 2.4383783,
      "tags": {
        "amenity": "pub",
        "name": "La Mascotte de l'Europe"
      }
    },
    {
      "type": "node",
      "id": 2285154160,
      "lat": 48.8908932,
      "lon": 2.3596443,
      "tags": {
        "amenity": "pub",
        "name": "Stop Chapelle"
      }
    },
    {
      "type": "node",
      "id": 2293740285,
      "lat": 48.8482373,
      "lon": 2.3469649,
      "tags": {
        "amenity": "pub",
        "name": "Le ZigZag"
      }
    },
    {
      "type": "node",
      "id": 2293740288,
      "lat": 48.850854,
      "lon": 2.3477158,
      "tags": {
        "amenity": "pub",
        "name": "Le Bistrot des Artistes"
      }
    },
    {
      "type": "node",
      "id": 2298160176,
      "lat": 48.8457908,
      "lon": 2.3539346,
      "tags": {
        "amenity": "pub",
        "name": "Finnegan's Wake"
      }
    },
    {
      "type": "node",
      "id": 2305186080,
      "lat": 48.89044,
      "lon": 2.3637643,
      "tags": {
        "amenity": "pub",
        "name": "Le Cadre Noir"
      }
    },
    {
      "type": "node",
      "id": 2305186081,
      "lat": 48.8901985,
      "lon": 2.363734,
      "tags": {
        "amenity": "pub",
        "name": "Le Sagitaire"
      }
    },
    {
      "type": "node",
      "id": 2317308530,
      "lat": 48.886855,
      "lon": 2.3608645,
      "tags": {
        "alt_name": "Le Vénéto",
        "amenity": "pub",
        "name": "Le Veneto"
      }
    },
    {
      "type": "node",
      "id": 2325915038,
      "lat": 48.8845646,
      "lon": 2.3650646,
      "tags": {
        "amenity": "pub",
        "name": "Tout va Mieux"
      }
    },
    {
      "type": "node",
      "id": 2327358561,
      "lat": 48.8107575,
      "lon": 2.3081708,
      "tags": {
        "amenity": "pub",
        "name": "Le Pélican",
        "source": "local Knowledge"
      }
    },
    {
      "type": "node",
      "id": 2328281907,
      "lat": 48.8862013,
      "lon": 2.3566961,
      "tags": {
        "amenity": "pub",
        "name": "La môme"
      }
    },
    {
      "type": "node",
      "id": 2329855383,
      "lat": 48.89772,
      "lon": 2.358659,
      "tags": {
        "amenity": "pub",
        "name": "Le Celtic"
      }
    },
    {
      "type": "node",
      "id": 2333397301,
      "lat": 48.8901546,
      "lon": 2.3614003,
      "tags": {
        "amenity": "pub",
        "name": "En vrac",
        "opening_hours": "Mo 17:00-21:00;Tu-Sa 10:00-22:00;Su 10:00-21:00",
        "website": "http://www.vinenvrac.fr/"
      }
    },
    {
      "type": "node",
      "id": 2343464256,
      "lat": 48.8960136,
      "lon": 2.4601436,
      "tags": {
        "amenity": "pub",
        "name": "Le Rond Point de la Gare"
      }
    },
    {
      "type": "node",
      "id": 2349337349,
      "lat": 48.8863988,
      "lon": 2.3563957,
      "tags": {
        "amenity": "pub",
        "name": "Le Mistral"
      }
    },
    {
      "type": "node",
      "id": 2349345389,
      "lat": 48.8871043,
      "lon": 2.3599792,
      "tags": {
        "amenity": "pub",
        "name": "Le Bouquet"
      }
    },
    {
      "type": "node",
      "id": 2349350818,
      "lat": 48.8875981,
      "lon": 2.3596144,
      "tags": {
        "amenity": "pub",
        "name": "La Belle Époque"
      }
    },
    {
      "type": "node",
      "id": 2355778352,
      "lat": 48.8456711,
      "lon": 2.349072,
      "tags": {
        "amenity": "pub",
        "name": "River"
      }
    },
    {
      "type": "node",
      "id": 2355778353,
      "lat": 48.8452705,
      "lon": 2.3491887,
      "tags": {
        "amenity": "pub",
        "name": "L'antidote"
      }
    },
    {
      "type": "node",
      "id": 2358454956,
      "lat": 48.8848468,
      "lon": 2.3565674,
      "tags": {
        "amenity": "pub",
        "name": "Le Nemrod"
      }
    },
    {
      "type": "node",
      "id": 2358458775,
      "lat": 48.8849808,
      "lon": 2.35955,
      "tags": {
        "amenity": "pub",
        "name": "Le Capucin"
      }
    },
    {
      "type": "node",
      "id": 2361287649,
      "lat": 48.8903987,
      "lon": 2.3592281,
      "tags": {
        "amenity": "pub",
        "name": "Le Provençal"
      }
    },
    {
      "type": "node",
      "id": 2370745418,
      "lat": 48.8537623,
      "lon": 2.3817697,
      "tags": {
        "amenity": "pub",
        "name": "Le petit Baiona",
        "wheelchair": "limited"
      }
    },
    {
      "type": "node",
      "id": 2375148543,
      "lat": 48.8855875,
      "lon": 2.3531342,
      "tags": {
        "amenity": "pub",
        "name": "La Goutte Rouge"
      }
    },
    {
      "type": "node",
      "id": 2375335936,
      "lat": 48.9066772,
      "lon": 2.3353672,
      "tags": {
        "amenity": "pub",
        "name": "Bihan café"
      }
    },
    {
      "type": "node",
      "id": 2375536643,
      "lat": 48.9052809,
      "lon": 2.3370838,
      "tags": {
        "amenity": "pub",
        "name": "Le Week-end"
      }
    },
    {
      "type": "node",
      "id": 2394065566,
      "lat": 48.8616362,
      "lon": 2.3492126,
      "tags": {
        "amenity": "pub",
        "name": "Hall's Beer Tavern",
        "note:fr": "Pub Restaurant, Bar à Bières",
        "source": "survey 2013"
      }
    },
    {
      "type": "node",
      "id": 2394065575,
      "lat": 48.861037,
      "lon": 2.3488844,
      "tags": {
        "amenity": "pub",
        "name": "Mc Brides",
        "source": "survey 2013"
      }
    },
    {
      "type": "node",
      "id": 2408672196,
      "lat": 48.8441092,
      "lon": 2.4022649,
      "tags": {
        "amenity": "pub",
        "name": "Chez Gudule"
      }
    },
    {
      "type": "node",
      "id": 2423030369,
      "lat": 48.7979852,
      "lon": 2.3995528,
      "tags": {
        "amenity": "pub"
      }
    },
    {
      "type": "node",
      "id": 2423030372,
      "lat": 48.8005373,
      "lon": 2.4019829,
      "tags": {
        "addr:postcode": "94400",
        "amenity": "pub"
      }
    },
    {
      "type": "node",
      "id": 2445876965,
      "lat": 48.8930088,
      "lon": 2.3377693,
      "tags": {
        "amenity": "pub",
        "name": "Au Bon Coin"
      }
    },
    {
      "type": "node",
      "id": 2469001986,
      "lat": 48.8891219,
      "lon": 2.3724461,
      "tags": {
        "amenity": "pub",
        "name": "Les Orgues"
      }
    },
    {
      "type": "node",
      "id": 2469138456,
      "lat": 48.89291,
      "lon": 2.3599148,
      "tags": {
        "amenity": "pub",
        "name": "Le Bistrot du Nord"
      }
    },
    {
      "type": "node",
      "id": 2472600007,
      "lat": 48.8929396,
      "lon": 2.3636125,
      "tags": {
        "amenity": "pub",
        "name": "Café de la Gare"
      }
    },
    {
      "type": "node",
      "id": 2472600013,
      "lat": 48.8930717,
      "lon": 2.363166,
      "tags": {
        "amenity": "pub",
        "name": "La Piscine"
      }
    },
    {
      "type": "node",
      "id": 2472600019,
      "lat": 48.8929606,
      "lon": 2.3633496,
      "tags": {
        "amenity": "pub",
        "name": "La Rotonde Hébertine"
      }
    },
    {
      "type": "node",
      "id": 2490099597,
      "lat": 48.8956929,
      "lon": 2.4256426,
      "tags": {
        "amenity": "pub",
        "name": "La Source"
      }
    },
    {
      "type": "node",
      "id": 2490190445,
      "lat": 48.8753058,
      "lon": 2.3579456,
      "tags": {
        "amenity": "pub",
        "name": "Tabac de l'Est"
      }
    },
    {
      "type": "node",
      "id": 2490249117,
      "lat": 48.8882481,
      "lon": 2.3627106,
      "tags": {
        "amenity": "pub",
        "name": "Les Petites Gouttes",
        "opening_hours": "Ma-Di 11:00-02:00",
        "website": "https://www.facebook.com/lespetitesgouttes"
      }
    },
    {
      "type": "node",
      "id": 2494555629,
      "lat": 48.8922743,
      "lon": 2.3450572,
      "tags": {
        "amenity": "pub",
        "name": "Café de la Place"
      }
    },
    {
      "type": "node",
      "id": 2495649464,
      "lat": 48.8983858,
      "lon": 2.4423902,
      "tags": {
        "amenity": "pub",
        "name": "La Folie"
      }
    },
    {
      "type": "node",
      "id": 2495649475,
      "lat": 48.8987636,
      "lon": 2.4426651,
      "tags": {
        "amenity": "pub",
        "name": "Vila Café"
      }
    },
    {
      "type": "node",
      "id": 2496809985,
      "lat": 48.8964221,
      "lon": 2.4315268,
      "tags": {
        "alt_name": "L'Arc-en-Ciel",
        "amenity": "pub",
        "gambling": "yes",
        "name": "Chez Anna",
        "restaurant": "yes",
        "tobacco": "yes"
      }
    },
    {
      "type": "node",
      "id": 2536393039,
      "lat": 48.8936524,
      "lon": 2.3592349,
      "tags": {
        "amenity": "pub",
        "name": "Le Citadin"
      }
    },
    {
      "type": "node",
      "id": 2549246541,
      "lat": 48.8539433,
      "lon": 2.3435961,
      "tags": {
        "amenity": "pub",
        "internet_access": "wlan",
        "name": "Galway Irish Pub",
        "phone": "+33 1 43 29 64 50",
        "smoking": "no"
      }
    },
    {
      "type": "node",
      "id": 2554450720,
      "lat": 48.8410792,
      "lon": 2.3509139,
      "tags": {
        "amenity": "pub",
        "name": "Connolly's Corner",
        "phone": "01 43 36 55 40"
      }
    },
    {
      "type": "node",
      "id": 2554450724,
      "lat": 48.8542344,
      "lon": 2.3429198,
      "tags": {
        "amenity": "pub",
        "fax": "01 46 33 59 42",
        "name": "Great Canadian Pub",
        "phone": "01 46 33 54 20",
        "website": "http://www.tgcparis.com"
      }
    },
    {
      "type": "node",
      "id": 2556489497,
      "lat": 48.8503692,
      "lon": 2.2930824,
      "tags": {
        "amenity": "pub",
        "name": "Au dernier Métro",
        "source": "cadastre-dgi-fr source : Direction Générale des Impôts - Cadastre. Mise à jour : 2013"
      }
    },
    {
      "type": "node",
      "id": 2575207523,
      "lat": 48.8525696,
      "lon": 2.3452847,
      "tags": {
        "addr:street": "Rue Xavier Privas",
        "amenity": "pub",
        "name": "Story Latin"
      }
    },
    {
      "type": "node",
      "id": 2583431160,
      "lat": 48.8214649,
      "lon": 2.253298,
      "tags": {
        "amenity": "pub",
        "name": "Le Maryland"
      }
    },
    {
      "type": "node",
      "id": 2626551371,
      "lat": 48.8597393,
      "lon": 2.3087639,
      "tags": {
        "addr:housenumber": "77",
        "addr:street": "Rue Saint-Dominique",
        "amenity": "pub",
        "name": "O'Brien's",
        "opening_hours": "Mo-Su 17:00-2:00",
        "phone": "01.45.51.75.87",
        "source": "cadastre-dgi-fr source : Direction Générale des Impôts - Cadastre. Mise à jour : 2010",
        "website": "http://www.obriens-pub.com/"
      }
    },
    {
      "type": "node",
      "id": 2677142507,
      "lat": 48.9205499,
      "lon": 2.4526099,
      "tags": {
        "amenity": "pub",
        "name": "Thé au cas Fées"
      }
    },
    {
      "type": "node",
      "id": 2682077012,
      "lat": 48.9180863,
      "lon": 2.4655195,
      "tags": {
        "amenity": "pub",
        "name": "Istanbul"
      }
    },
    {
      "type": "node",
      "id": 2696727064,
      "lat": 48.8902655,
      "lon": 2.3544161,
      "tags": {
        "amenity": "pub",
        "name": "L'escale"
      }
    },
    {
      "type": "node",
      "id": 2696736610,
      "lat": 48.890784,
      "lon": 2.3529231,
      "tags": {
        "amenity": "pub",
        "name": "Les deux marches"
      }
    },
    {
      "type": "node",
      "id": 2701902544,
      "lat": 48.8468506,
      "lon": 2.3476725,
      "tags": {
        "amenity": "pub",
        "name": "Le Bombardier"
      }
    },
    {
      "type": "node",
      "id": 2756226765,
      "lat": 48.8843844,
      "lon": 2.3286648,
      "tags": {
        "addr:housenumber": "130 ter",
        "addr:street": "Boulevard de Clichy",
        "amenity": "pub",
        "name": "Le Carolus"
      }
    },
    {
      "type": "way",
      "id": 46480701,
      "nodes": [
        593900079,
        593900076,
        701748574,
        593900078,
        593900082,
        593900083,
        701746622,
        593900079
      ],
      "tags": {
        "amenity": "pub",
        "building": "yes",
        "name": "Le Fénélon"
      }
    },
    {
      "type": "way",
      "id": 46480703,
      "nodes": [
        593900078,
        701748595,
        593900080,
        593900081,
        701748572,
        593900084,
        593900086,
        593900083,
        593900082,
        593900078
      ],
      "tags": {
        "amenity": "pub",
        "building": "yes",
        "name": "Le Rive Gauche"
      }
    },
    {
      "type": "way",
      "id": 54740915,
      "nodes": [
        689347031,
        689346836,
        689346850,
        689346590,
        689346155,
        689346322,
        689347031
      ],
      "tags": {
        "amenity": "pub",
        "building": "yes",
        "microbrewery": "yes",
        "name": "Le Biscornu",
        "opening_hours": "Mo-Sa 07:00-02:00; Su off",
        "phone": "01 40 26 07 30",
        "smoking": "no",
        "source": "http://www.lebiscornu.fr/infos-utiles.html",
        "website": "http://www.lebiscornu.fr/"
      }
    },
    {
      "type": "way",
      "id": 55344747,
      "nodes": [
        695173975,
        695173962,
        695173964,
        695173967,
        695173976,
        695173978,
        695173979,
        720627672,
        695173981,
        695173969,
        1134282103,
        695173975
      ],
      "tags": {
        "amenity": "pub",
        "building": "yes",
        "name": "The Bombardier",
        "source": "cadastre-dgi-fr source : Direction Générale des Impôts - Cadastre ; mise à jour : 2010"
      }
    },
    {
      "type": "way",
      "id": 63203469,
      "nodes": [
        784441337,
        784300157,
        784306858,
        784298784,
        784356961,
        784346648,
        784319853,
        784386875,
        784421327,
        784504987,
        784465315,
        1273548195,
        784441337
      ],
      "tags": {
        "addr:city": "Paris",
        "addr:housenumber": "5",
        "addr:postcode": "75010",
        "addr:street": "Rue de Dunkerque",
        "amenity": "pub",
        "building": "yes",
        "name": "Belushi's Gare du Nord",
        "source": "cadastre-dgi-fr source : Direction Générale des Impôts - Cadastre. Mise à jour : 2010",
        "website": "http://www.belushis.com/bars/paris"
      }
    },
    {
      "type": "way",
      "id": 70790418,
      "nodes": [
        843874728,
        843814038,
        843905720,
        843759785,
        844064462,
        844046943,
        844065109,
        844028082,
        843777742,
        843944008,
        843767744,
        843874728
      ],
      "tags": {
        "amenity": "pub",
        "building": "yes",
        "name": "Tendance",
        "source": "cadastre-dgi-fr source : Direction Générale des Impôts - Cadastre. Mise à jour : 2010"
      }
    },
    {
      "type": "node",
      "id": 593900076,
      "lat": 48.8532757,
      "lon": 2.3430835
    },
    {
      "type": "node",
      "id": 593900078,
      "lat": 48.8533705,
      "lon": 2.34326
    },
    {
      "type": "node",
      "id": 593900079,
      "lat": 48.8532824,
      "lon": 2.3430254
    },
    {
      "type": "node",
      "id": 593900080,
      "lat": 48.853421,
      "lon": 2.3433557
    },
    {
      "type": "node",
      "id": 593900081,
      "lat": 48.853424,
      "lon": 2.3433524
    },
    {
      "type": "node",
      "id": 593900082,
      "lat": 48.853455,
      "lon": 2.343157
    },
    {
      "type": "node",
      "id": 593900083,
      "lat": 48.8534695,
      "lon": 2.3431254
    },
    {
      "type": "node",
      "id": 593900084,
      "lat": 48.8535299,
      "lon": 2.3431915
    },
    {
      "type": "node",
      "id": 593900086,
      "lat": 48.8535369,
      "lon": 2.3431578
    },
    {
      "type": "node",
      "id": 701746622,
      "lat": 48.8533447,
      "lon": 2.3430587
    },
    {
      "type": "node",
      "id": 701748572,
      "lat": 48.8535045,
      "lon": 2.3432301
    },
    {
      "type": "node",
      "id": 701748574,
      "lat": 48.8533035,
      "lon": 2.3431352
    },
    {
      "type": "node",
      "id": 701748595,
      "lat": 48.853395,
      "lon": 2.3433065
    },
    {
      "type": "node",
      "id": 695173962,
      "lat": 48.8468162,
      "lon": 2.3474113
    },
    {
      "type": "node",
      "id": 695173964,
      "lat": 48.8468314,
      "lon": 2.3474033
    },
    {
      "type": "node",
      "id": 695173967,
      "lat": 48.8469153,
      "lon": 2.3476204
    },
    {
      "type": "node",
      "id": 695173969,
      "lat": 48.8468458,
      "lon": 2.3476346
    },
    {
      "type": "node",
      "id": 695173975,
      "lat": 48.846835,
      "lon": 2.3474886
    },
    {
      "type": "node",
      "id": 695173976,
      "lat": 48.8468906,
      "lon": 2.3477404
    },
    {
      "type": "node",
      "id": 695173978,
      "lat": 48.8468689,
      "lon": 2.3478032
    },
    {
      "type": "node",
      "id": 695173979,
      "lat": 48.846866,
      "lon": 2.3478039
    },
    {
      "type": "node",
      "id": 695173981,
      "lat": 48.8468116,
      "lon": 2.347692
    },
    {
      "type": "node",
      "id": 1134282103,
      "lat": 48.8468633,
      "lon": 2.3476055
    },
    {
      "type": "node",
      "id": 720627672,
      "lat": 48.8468322,
      "lon": 2.3477343
    },
    {
      "type": "node",
      "id": 689346155,
      "lat": 48.8676956,
      "lon": 2.3437303
    },
    {
      "type": "node",
      "id": 689346322,
      "lat": 48.8676717,
      "lon": 2.3435107
    },
    {
      "type": "node",
      "id": 689346590,
      "lat": 48.8677231,
      "lon": 2.3437191
    },
    {
      "type": "node",
      "id": 689346836,
      "lat": 48.8677396,
      "lon": 2.343583
    },
    {
      "type": "node",
      "id": 689346850,
      "lat": 48.8677504,
      "lon": 2.3437079
    },
    {
      "type": "node",
      "id": 689347031,
      "lat": 48.8677322,
      "lon": 2.3434966
    },
    {
      "type": "node",
      "id": 784298784,
      "lat": 48.8791524,
      "lon": 2.3577635
    },
    {
      "type": "node",
      "id": 784300157,
      "lat": 48.8792859,
      "lon": 2.3578284
    },
    {
      "type": "node",
      "id": 784306858,
      "lat": 48.879251,
      "lon": 2.3578115
    },
    {
      "type": "node",
      "id": 784319853,
      "lat": 48.8790428,
      "lon": 2.3577152
    },
    {
      "type": "node",
      "id": 784346648,
      "lat": 48.8791259,
      "lon": 2.3577557
    },
    {
      "type": "node",
      "id": 784356961,
      "lat": 48.8791269,
      "lon": 2.3577512
    },
    {
      "type": "node",
      "id": 784386875,
      "lat": 48.8789905,
      "lon": 2.3579564
    },
    {
      "type": "node",
      "id": 784421327,
      "lat": 48.8789978,
      "lon": 2.3579606
    },
    {
      "type": "node",
      "id": 784441337,
      "lat": 48.8793678,
      "lon": 2.3578679
    },
    {
      "type": "node",
      "id": 784465315,
      "lat": 48.8792899,
      "lon": 2.3582466
    },
    {
      "type": "node",
      "id": 784504987,
      "lat": 48.878971,
      "lon": 2.3580963
    },
    {
      "type": "node",
      "id": 1273548195,
      "lat": 48.8793095,
      "lon": 2.3581513
    },
    {
      "type": "node",
      "id": 843759785,
      "lat": 48.9057046,
      "lon": 2.2817082
    },
    {
      "type": "node",
      "id": 843767744,
      "lat": 48.9057645,
      "lon": 2.2819297
    },
    {
      "type": "node",
      "id": 843777742,
      "lat": 48.9057123,
      "lon": 2.2818548
    },
    {
      "type": "node",
      "id": 843814038,
      "lat": 48.9057384,
      "lon": 2.2816618
    },
    {
      "type": "node",
      "id": 843874728,
      "lat": 48.9058401,
      "lon": 2.2818093
    },
    {
      "type": "node",
      "id": 843905720,
      "lat": 48.9057083,
      "lon": 2.2817036
    },
    {
      "type": "node",
      "id": 843944008,
      "lat": 48.9057171,
      "lon": 2.2818616
    },
    {
      "type": "node",
      "id": 844028082,
      "lat": 48.9057463,
      "lon": 2.2818003
    },
    {
      "type": "node",
      "id": 844046943,
      "lat": 48.9057319,
      "lon": 2.2817641
    },
    {
      "type": "node",
      "id": 844064462,
      "lat": 48.905738,
      "lon": 2.2817552
    },
    {
      "type": "node",
      "id": 844065109,
      "lat": 48.9057439,
      "lon": 2.2817818
    }
  ]
}